{"type": "FeatureCollection", "features": [ {"type": "Feature", "properties": {"norad_id": 66545, "name": "SHIJIAN-30A", "group": "last-30-days", "lat": -50.39295799221946, "lon": -98.65550298323565, "alt_km": 521.292905796734, "timestamp": "2025-12-12T14:39:16.771345+00:00", "meta": {"OBJECT_NAME": "SHIJIAN-30A", "OBJECT_ID": "2025-266A", "EPOCH": "2025-12-12T07:05:16.451520", "MEAN_MOTION": 15.15639063, "ECCENTRICITY": 0.00127806, "INCLINATION": 51.7982, "RA_OF_ASC_NODE": 334.9438, "ARG_OF_PERICENTER": 354.9476, "MEAN_ANOMALY": 5.1369, "EPHEMERIS_TYPE": 0, "CLASSIFICATION_TYPE": "U", "NORAD_CAT_ID": 66545, "ELEMENT_SET_NO": 999, "REV_AT_EPOCH": 351, "BSTAR": 0.00085851059, "MEAN_MOTION_DOT": 0.00016286, "MEAN_MOTION_DDOT": 0}, "tle": {"line1": "1 66545U 25266A   25346.29532930  .00016286  00000+0  85851-3 0  9992", "line2": "2 66545  51.7982 334.9438 0012780 354.9476   5.1369 15.15639063  3512"}}, "geometry": {"type": "Point", "coordinates": [-98.65550298323565, -50.39295799221946]}}, {"type": "Feature", "properties": {"norad_id": 66546, "name": "SHIJIAN-30B", "group": "last-30-days", "lat": -51.49170270338454, "lon": -108.3401143204363, "alt_km": 523.6113261368318, "timestamp": "2025-12-12T14:39:16.771354+00:00", "meta": {"OBJECT_NAME": "SHIJIAN-30B", "OBJECT_ID": "2025-266B", "EPOCH": "2025-12-12T05:31:53.049504", "MEAN_MOTION": 15.1539494, "ECCENTRICITY": 0.00104721, "INCLINATION": 51.7965, "RA_OF_ASC_NODE": 335.2563, "ARG_OF_PERICENTER": 357.7085, "MEAN_ANOMALY": 2.3842, "EPHEMERIS_TYPE": 0, "CLASSIFICATION_TYPE": "U", "NORAD_CAT_ID": 66546, "ELEMENT_SET_NO": 999, "REV_AT_EPOCH": 350, "BSTAR": 0.00099737999, "MEAN_MOTION_DOT": 0.00018833, "MEAN_MOTION_DDOT": 0}, "tle": {"line1": "1 66546U 25266B   25346.23047511  .00018833  00000+0  99738-3 0  9992", "line2": "2 66546  51.7965 335.2563 0010472 357.7085   2.3842 15.15394940  3506"}}, "geometry": {"type": "Point", "coordinates": [-108.3401143204363, -51.49170270338454]}}, {"type": "Feature", "properties": {"norad_id": 66547, "name": "SHIJIAN-30C", "group": "last-30-days", "lat": -51.68775514258956, "lon": -111.90368243405437, "alt_km": 522.8375723785657, "timestamp": "2025-12-12T14:39:16.771363+00:00", "meta": {"OBJECT_NAME": "SHIJIAN-30C", "OBJECT_ID": "2025-266C", "EPOCH": "2025-12-12T05:32:27.051360", "MEAN_MOTION": 15.15357456, "ECCENTRICITY": 0.00114937, "INCLINATION": 51.7976, "RA_OF_ASC_NODE": 335.2594, "ARG_OF_PERICENTER": 349.4573, "MEAN_ANOMALY": 10.616, "EPHEMERIS_TYPE": 0, "CLASSIFICATION_TYPE": "U", "NORAD_CAT_ID": 66547, "ELEMENT_SET_NO": 999, "REV_AT_EPOCH": 350, "BSTAR": 0.00088728385, "MEAN_MOTION_DOT": 0.00016701, "MEAN_MOTION_DDOT": 0}, "tle": {"line1": "1 66547U 25266C   25346.23086865  .00016701  00000+0  88728-3 0  9997", "line2": "2 66547  51.7976 335.2594 0011493 349.4573  10.6160 15.15357456  3503"}}, "geometry": {"type": "Point", "coordinates": [-111.90368243405437, -51.68775514258956]}}, {"type": "Feature", "properties": {"norad_id": 66548, "name": "CZ-2C R/B", "group": "last-30-days", "lat": 36.153590408519314, "lon": 6.652697044347874, "alt_km": 502.42038521454197, "timestamp": "2025-12-12T14:39:16.771374+00:00", "meta": {"OBJECT_NAME": "CZ-2C R/B", "OBJECT_ID": "2025-266D", "EPOCH": "2025-12-12T06:36:13.222656", "MEAN_MOTION": 15.30162717, "ECCENTRICITY": 0.00839208, "INCLINATION": 52.0553, "RA_OF_ASC_NODE": 333.4936, "ARG_OF_PERICENTER": 171.4081, "MEAN_ANOMALY": 188.8364, "EPHEMERIS_TYPE": 0, "CLASSIFICATION_TYPE": "U", "NORAD_CAT_ID": 66548, "ELEMENT_SET_NO": 999, "REV_AT_EPOCH": 354, "BSTAR": 0.00046657621, "MEAN_MOTION_DOT": 0.00015017, "MEAN_MOTION_DDOT": 0}, "tle": {"line1": "1 66548U 25266D   25346.27515304  .00015017  00000+0  46658-3 0  9992", "line2": "2 66548  52.0553 333.4936 0083920 171.4081 188.8364 15.30162717  3549"}}, "geometry": {"type": "Point", "coordinates": [6.652697044347874, 36.153590408519314]}}, {"type": "Feature", "properties": {"norad_id": 66549, "name": "SHIJIAN-28", "group": "last-30-days", "lat": 39.191017422084286, "lon": -151.4196296048492, "alt_km": 836.933782717043, "timestamp": "2025-12-12T14:39:16.771383+00:00", "meta": {"OBJECT_NAME": "SHIJIAN-28", "OBJECT_ID": "2025-277A", "EPOCH": "2025-12-11T21:50:26.664576", "MEAN_MOTION": 14.45036477, "ECCENTRICITY": 0.0226533, "INCLINATION": 66.663, "RA_OF_ASC_NODE": 189.8532, "ARG_OF_PERICENTER": 275.2622, "MEAN_ANOMALY": 82.2673, "EPHEMERIS_TYPE": 0, "CLASSIFICATION_TYPE": "U", "NORAD_CAT_ID": 66549, "ELEMENT_SET_NO": 999, "REV_AT_EPOCH": 42374, "BSTAR": 0.00018715, "MEAN_MOTION_DOT": 7.83e-06, "MEAN_MOTION_DDOT": 0}, "tle": {"line1": "1 66549U 25277A   25345.91003084  .00000783  00000+0  18715-3 0  9999", "line2": "2 66549  66.6630 189.8532 0226533 275.2622  82.2673 14.45036477423741"}}, "geometry": {"type": "Point", "coordinates": [-151.4196296048492, 39.191017422084286]}}, {"type": "Feature", "properties": {"norad_id": 66550, "name": "CZ-7A R/B", "group": "last-30-days", "lat": -1.2450899908733095, "lon": -94.8747788301769, "alt_km": 28413.116022109283, "timestamp": "2025-12-12T14:39:16.771394+00:00", "meta": {"OBJECT_NAME": "CZ-7A R/B", "OBJECT_ID": "2025-277B", "EPOCH": "2025-12-11T21:15:17.066880", "MEAN_MOTION": 2.66441312, "ECCENTRICITY": 0.70455647, "INCLINATION": 14.387, "RA_OF_ASC_NODE": 270.3219, "ARG_OF_PERICENTER": 188.195, "MEAN_ANOMALY": 147.1658, "EPHEMERIS_TYPE": 0, "CLASSIFICATION_TYPE": "U", "NORAD_CAT_ID": 66550, "ELEMENT_SET_NO": 999, "REV_AT_EPOCH": 32, "BSTAR": 0.0016961454, "MEAN_MOTION_DOT": 0.01819102, "MEAN_MOTION_DDOT": 7.12965e-07}, "tle": {"line1": "1 66550U 25277B   25345.88561420  .01819102  71296-6  16961-2 0  9996", "line2": "2 66550  14.3870 270.3219 7045564 188.1950 147.1658  2.66441312   320"}}, "geometry": {"type": "Point", "coordinates": [-94.8747788301769, -1.2450899908733095]}}, {"type": "Feature", "properties": {"norad_id": 66551, "name": "USA 568", "group": "last-30-days", "lat": -45.17236208866502, "lon": 138.95083564731502, "alt_km": 226.23306955353019, "timestamp": "2025-12-12T14:39:16.771404+00:00", "meta": {"OBJECT_NAME": "USA 568", "OBJECT_ID": "2024-134K", "EPOCH": "2025-12-02T16:00:03.000096", "MEAN_MOTION": 15.87051116, "ECCENTRICITY": 7.17e-05, "INCLINATION": 53.1571, "RA_OF_ASC_NODE": 236.7807, "ARG_OF_PERICENTER": 110.7411, "MEAN_ANOMALY": 313.9012, "EPHEMERIS_TYPE": 0, "CLASSIFICATION_TYPE": "U", "NORAD_CAT_ID": 66551, "ELEMENT_SET_NO": 999, "REV_AT_EPOCH": 262, "BSTAR": -0.0074303, "MEAN_MOTION_DOT": -0.01709685, "MEAN_MOTION_DDOT": 0}, "tle": {"line1": "1 66551U 24134K   25336.66670139 -.01709685  00000+0 -74303-2 0  9990", "line2": "2 66551  53.1571 236.7807 0000717 110.7411 313.9012 15.87051116  2624"}}, "geometry": {"type": "Point", "coordinates": [138.95083564731502, -45.17236208866502]}}, {"type": "Feature", "properties": {"norad_id": 66554, "name": "GLOBAL-33", "group": "last-30-days", "lat": 38.136284482462735, "lon": 118.42118782069218, "alt_km": 461.9151959656019, "timestamp": "2025-12-12T14:39:16.771414+00:00", "meta": {"OBJECT_NAME": "GLOBAL-33", "OBJECT_ID": "2025-267A", "EPOCH": "2025-12-12T06:32:13.991424", "MEAN_MOTION": 15.31623691, "ECCENTRICITY": 0.00042754, "INCLINATION": 42.0213, "RA_OF_ASC_NODE": 59.6909, "ARG_OF_PERICENTER": 51.9902, "MEAN_ANOMALY": 308.1321, "EPHEMERIS_TYPE": 0, "CLASSIFICATION_TYPE": "U", "NORAD_CAT_ID": 66554, "ELEMENT_SET_NO": 999, "REV_AT_EPOCH": 333, "BSTAR": 0.0004305913, "MEAN_MOTION_DOT": 0.00013207, "MEAN_MOTION_DDOT": 0}, "tle": {"line1": "1 66554U 25267A   25346.27238416  .00013207  00000+0  43059-3 0  9997", "line2": "2 66554  42.0213  59.6909 0004275  51.9902 308.1321 15.31623691  3336"}}, "geometry": {"type": "Point", "coordinates": [118.42118782069218, 38.136284482462735]}}, {"type": "Feature", "properties": {"norad_id": 66555, "name": "ELECTRON KICK STAGE R/B", "group": "last-30-days", "lat": 29.707656668409758, "lon": -161.74201655783008, "alt_km": 461.9217918135255, "timestamp": "2025-12-12T14:39:16.771424+00:00", "meta": {"OBJECT_NAME": "ELECTRON KICK STAGE R/B", "OBJECT_ID": "2025-267B", "EPOCH": "2025-12-12T06:15:44.318304", "MEAN_MOTION": 15.32775527, "ECCENTRICITY": 0.00065674, "INCLINATION": 42.0197, "RA_OF_ASC_NODE": 59.6038, "ARG_OF_PERICENTER": 48.8841, "MEAN_ANOMALY": 311.2563, "EPHEMERIS_TYPE": 0, "CLASSIFICATION_TYPE": "U", "NORAD_CAT_ID": 66555, "ELEMENT_SET_NO": 999, "REV_AT_EPOCH": 333, "BSTAR": 0.0010907827, "MEAN_MOTION_DOT": 0.00035216, "MEAN_MOTION_DDOT": 0}, "tle": {"line1": "1 66555U 25267B   25346.26092961  .00035216  00000+0  10908-2 0  9990", "line2": "2 66555  42.0197  59.6038 0006567  48.8841 311.2563 15.32775527  3334"}}, "geometry": {"type": "Point", "coordinates": [-161.74201655783008, 29.707656668409758]}}, {"type": "Feature", "properties": {"norad_id": 66557, "name": "STARLINK-35699", "group": "last-30-days", "lat": 42.58041064051914, "lon": -138.4926103616435, "alt_km": 409.4395018666846, "timestamp": "2025-12-12T14:39:16.771435+00:00", "meta": {"OBJECT_NAME": "STARLINK-35699", "OBJECT_ID": "2025-268A", "EPOCH": "2025-12-12T06:00:00.999648", "MEAN_MOTION": 15.50515246, "ECCENTRICITY": 0.00015041, "INCLINATION": 42.9999, "RA_OF_ASC_NODE": 124.0616, "ARG_OF_PERICENTER": 265.6694, "MEAN_ANOMALY": 336.1149, "EPHEMERIS_TYPE": 0, "CLASSIFICATION_TYPE": "U", "NORAD_CAT_ID": 66557, "ELEMENT_SET_NO": 999, "REV_AT_EPOCH": 458, "BSTAR": 0.0001733561, "MEAN_MOTION_DOT": 9.818e-05, "MEAN_MOTION_DDOT": 0}, "tle": {"line1": "1 66557U 25268A   25346.25001157  .00009818  00000+0  17336-3 0  9991", "line2": "2 66557  42.9999 124.0616 0001504 265.6694 336.1149 15.50515246  4589"}}, "geometry": {"type": "Point", "coordinates": [-138.4926103616435, 42.58041064051914]}}]}